<?xml version="1.0" encoding="UTF-8"?>
<kml xmlns="http://www.opengis.net/kml/2.2">
  <Document>
    <name>Sydney Landmarks</name>
    <Placemark>
      <name>Opera House</name>
      <description>Famous performing arts venue</description>
      <Point>
        <coordinates>151.2153,-33.8568,0</coordinates>
      </Point>
    </Placemark>
    <Placemark>
      <name>Harbour Bridge</name>
      <description>Iconic steel arch bridge</description>
      <Point>
        <coordinates>151.2108,-33.8523,0</coordinates>
      </Point>
    </Placemark>
  </Document>
</kml>
